     2.100          NAVIGATION                              RINEX VERSION / TYPE
fic2rin                                 10/17/2017 00:04:07 PGM / RUN BY / DATE
                                                            END OF HEADER
21 17 10 16  1 59 44.0 -.470808241516D-03  .329691829393D-11  .000000000000D+00
     .290000000000D+02 -.345937500000D+02  .541308261948D-08  .473662764287D+00
    -.181607902050D-05  .240139673697D-01  .364519655704D-05  .515358095360D+04
     .935840000000D+05 -.316649675369D-06  .121378862801D+01 -.186264514923D-06
     .940898307711D+00  .306468750000D+03 -.163289067757D+01 -.911252243028D-08
    -.223580741607D-09  .100000000000D+01  .197100000000D+04  .000000000000D+00
     .240000000000D+01  .000000000000D+00 -.977888703346D-08  .290000000000D+02
     .867960000000D+05  .400000000000D+01
 1 17 10 16  1 59 44.0 -.469712540507D-05 -.136424205266D-11  .000000000000D+00
     .220000000000D+02 -.494375000000D+02  .460662045566D-08  .216442638891D+01
    -.263005495071D-05  .709069147706D-02  .405125319958D-05  .515367518044D+04
     .935840000000D+05 -.163912773132D-06  .126179698679D+01 -.596046447754D-07
     .968454844992D+00  .305656250000D+03  .631109338660D+00 -.831356057888D-08
    -.147506144223D-09  .100000000000D+01  .197100000000D+04  .000000000000D+00
     .240000000000D+01  .000000000000D+00  .558793544769D-08  .220000000000D+02
     .876960000000D+05  .400000000000D+01
30 17 10 16  1 59 44.0  .134447123855D-03 -.238742359215D-11  .000000000000D+00
     .180000000000D+02 -.212812500000D+02  .540093925651D-08  .152284067403D+01
    -.983476638794D-06  .304465193767D-02  .469014048576D-05  .515361147308D+04
     .935840000000D+05  .912696123123D-07 -.182821875050D+01  .614672899246D-07
     .946228876905D+00  .281312500000D+03 -.305060308870D+01 -.864357432528D-08
    -.333942481473D-09  .100000000000D+01  .197100000000D+04  .000000000000D+00
     .240000000000D+01  .000000000000D+00  .372529029846D-08  .180000000000D+02
     .877260000000D+05  .400000000000D+01
 1 17 10 16  3 59 44.0 -.470690429211D-05 -.136424205266D-11  .000000000000D+00
     .230000000000D+02 -.450937500000D+02  .454090343257D-08 -.306863554944D+01
    -.234879553318D-05  .708962988574D-02  .362657010555D-05  .515367729187D+04
     .100784000000D+06 -.391155481339D-07  .126173758062D+01 -.894069671631D-07
     .968454232029D+00  .312750000000D+03  .631165751707D+00 -.822105672573D-08
    -.140362989539D-09  .100000000000D+01  .197100000000D+04  .000000000000D+00
     .240000000000D+01  .000000000000D+00  .558793544769D-08  .230000000000D+02
     .936060000000D+05  .400000000000D+01
21 17 10 16  3 59 44.0 -.470784958452D-03  .329691829393D-11  .000000000000D+00
     .300000000000D+02 -.423437500000D+02  .531879297765D-08  .152384179422D+01
    -.284798443317D-05  .240144248819D-01  .288709998131D-05  .515358394623D+04
     .100784000000D+06  .186264514923D-07  .121372286107D+01 -.583007931709D-06
     .940898345747D+00  .316156250000D+03 -.163282551042D+01 -.873893544031D-08
    -.131791203918D-09  .100000000000D+01  .197100000000D+04  .000000000000D+00
     .240000000000D+01  .000000000000D+00 -.977888703346D-08  .300000000000D+02
     .936060000000D+05  .400000000000D+01
30 17 10 16  3 59 44.0  .134429894388D-03 -.238742359215D-11  .000000000000D+00
     .190000000000D+02 -.222812500000D+02  .535915180161D-08  .257306815288D+01
    -.108964741230D-05  .304452655837D-02  .470690429211D-05  .515361157608D+04
     .100784000000D+06 -.987201929092D-07 -.182828144678D+01  .353902578354D-07
     .946227291102D+00  .282750000000D+03 -.305060476959D+01 -.853892710916D-08
    -.200365488884D-09  .100000000000D+01  .197100000000D+04  .000000000000D+00
     .240000000000D+01  .000000000000D+00  .372529029846D-08  .190000000000D+02
     .936060000000D+05  .400000000000D+01
 2 17 10 16  4  0  0.0  .305298715830D-03 -.932232069317D-11  .000000000000D+00
     .630000000000D+02 -.500625000000D+02  .503806699857D-08 -.264876331594D+01
    -.244565308094D-05  .171478549019D-01  .301748514175D-05  .515359955978D+04
     .100800000000D+06  .182539224625D-06  .120532308097D+01 -.484287738800D-07
     .947461670656D+00  .312625000000D+03 -.194743161709D+01 -.830963184381D-08
    -.553594488004D-10  .100000000000D+01  .197100000000D+04  .000000000000D+00
     .240000000000D+01  .000000000000D+00 -.204890966415D-07  .630000000000D+02
     .936060000000D+05  .400000000000D+01
 3 17 10 16  4  0  0.0 -.553852878511D-04  .488853402203D-11  .000000000000D+00
     .710000000000D+02 -.526875000000D+02  .424589114412D-08  .220401509677D+01
    -.275485217571D-05  .106643815525D-02  .112615525723D-04  .515364444923D+04
     .100800000000D+06  .111758708954D-07  .230473157910D+01  .000000000000D+00
     .960330612825D+00  .160312500000D+03  .523728628108D+00 -.791640117846D-08
    -.140362989539D-09  .100000000000D+01  .197100000000D+04  .000000000000D+00
     .240000000000D+01  .000000000000D+00  .232830643654D-08  .710000000000D+02
     .936060000000D+05  .400000000000D+01
 5 17 10 16  4  0  0.0 -.258842483163D-04  .125055521494D-11  .000000000000D+00
     .340000000000D+02 -.655625000000D+02  .457161899771D-08 -.130122578162D+00
    -.328756868839D-05  .525751442183D-02  .117085874081D-04  .515357915306D+04
     .100800000000D+06  .670552253723D-07  .228598082412D+01  .633299350739D-07
     .947244526800D+00  .144593750000D+03  .606384352468D+00 -.814998233662D-08
    -.111433213069D-09  .100000000000D+01  .197100000000D+04  .000000000000D+00
     .240000000000D+01  .000000000000D+00 -.107102096081D-07  .340000000000D+02
     .936060000000D+05  .400000000000D+01
 6 17 10 16  4  0  0.0  .404684338719D-03  .238742359215D-11  .000000000000D+00
     .108000000000D+03 -.500625000000D+02  .466162274673D-08 -.285533615404D+01
    -.255182385445D-05  .568340881728D-03  .391900539398D-05  .515376145363D+04
     .100800000000D+06  .372529029846D-08  .125338102536D+01 -.204890966415D-07
     .968208376942D+00  .310843750000D+03 -.117790214888D+01 -.833034699239D-08
    -.211080220910D-09  .100000000000D+01  .197100000000D+04  .000000000000D+00
     .240000000000D+01  .000000000000D+00  .465661287308D-08  .108000000000D+03
     .936060000000D+05  .400000000000D+01
 7 17 10 16  4  0  0.0  .292651355267D-03 -.500222085975D-11  .000000000000D+00
     .720000000000D+02 -.213125000000D+02  .493270546698D-08  .257991765382D+01
    -.114738941193D-05  .110871969955D-01  .465102493763D-05  .515371351051D+04
     .100800000000D+06 -.139698386192D-06 -.186515524933D+01 -.149011611938D-06
     .960547392414D+00  .292781250000D+03 -.255142694826D+01 -.822212819893D-08
    -.188222125921D-09  .100000000000D+01  .197100000000D+04  .000000000000D+00
     .240000000000D+01  .000000000000D+00 -.111758708954D-07  .720000000000D+02
     .936060000000D+05  .400000000000D+01
 8 17 10 16  4  0  0.0 -.771596096456D-04 -.136424205266D-11  .000000000000D+00
     .290000000000D+02  .683437500000D+02  .431267964042D-08 -.337664074298D+00
     .361353158951D-05  .271829543635D-02  .800006091595D-05  .515370643806D+04
     .100800000000D+06 -.335276126862D-07  .198069029890D+00 -.279396772385D-07
     .968078595628D+00  .232156250000D+03 -.637014262658D+00 -.809605151876D-08
     .282154610015D-09  .100000000000D+01  .197100000000D+04  .000000000000D+00
     .240000000000D+01  .000000000000D+00  .558793544769D-08  .290000000000D+02
     .936060000000D+05  .400000000000D+01
 9 17 10 16  4  0  0.0  .458451453596D-03  .545696821064D-11  .000000000000D+00
     .220000000000D+02  .718750000000D+02  .480198573627D-08 -.641883229996D+00
     .356324017048D-05  .892642303370D-03  .849552452564D-05  .515375617981D+04
     .100800000000D+06 -.558793544769D-08 -.294363183136D+01  .633299350739D-07
     .953589445354D+00  .216250000000D+03  .179411384519D+01 -.819927010394D-08
     .505021036153D-09  .100000000000D+01  .197100000000D+04  .000000000000D+00
     .240000000000D+01  .000000000000D+00  .931322574615D-09  .220000000000D+02
     .936060000000D+05  .400000000000D+01
10 17 10 16  4  0  0.0  .897003337741D-04  .875388650456D-11  .000000000000D+00
     .230000000000D+02 -.669062500000D+02  .430732227440D-08  .122314131053D+01
    -.344216823578D-05  .283313973341D-02  .109989196062D-04  .515367513466D+04
     .100800000000D+06 -.633299350739D-07  .230112010835D+01  .465661287308D-07
     .960464695118D+00  .168125000000D+03 -.287537248486D+01 -.790497213096D-08
    -.170364239212D-09  .100000000000D+01  .197100000000D+04  .000000000000D+00
     .240000000000D+01  .000000000000D+00  .186264514923D-08  .230000000000D+02
     .936060000000D+05  .400000000000D+01
11 17 10 16  4  0  0.0 -.721502117813D-03 -.204636307899D-11  .000000000000D+00
     .220000000000D+02  .235625000000D+02  .601703634800D-08  .260015870979D+01
     .129640102386D-05  .170335675357D-01  .186637043953D-05  .515373467064D+04
     .100800000000D+06  .240281224251D-06  .849586659460D+00 -.484287738800D-07
     .902410520312D+00  .307843750000D+03  .170756386069D+01 -.879536636231D-08
     .110718897601D-10  .100000000000D+01  .197100000000D+04  .000000000000D+00
     .240000000000D+01  .000000000000D+00 -.121071934700D-07  .220000000000D+02
     .936060000000D+05  .400000000000D+01
12 17 10 16  4  0  0.0  .368937849998D-03 -.159161572810D-11  .000000000000D+00
     .740000000000D+02 -.771875000000D+01  .371658338204D-08  .197788092273D+01
    -.543892383575D-06  .654205260798D-02  .123735517263D-04  .515371030045D+04
     .100800000000D+06 -.152736902237D-06 -.777254847464D+00 -.121071934700D-06
     .988422894112D+00  .153562500000D+03  .912423090061D+00 -.758567311659D-08
    -.300726812193D-09  .100000000000D+01  .197100000000D+04  .000000000000D+00
     .240000000000D+01  .000000000000D+00 -.125728547573D-07  .740000000000D+02
     .936060000000D+05  .400000000000D+01
